MALLIGYONG-1            
1 58400U 23179A   24147.94368466  .00006496  00000+0  28100-3 0  9991
2 58400  97.4059  35.1295 0008413 348.5545  11.5499 15.22754448 28492
